County,Pharmacy Name,Address,City,Zip Code,County 1
Atlantic,ACME Markets of Ventnor City,5100 Wellington Ave.,Ventnor City,8406,Atlantic
Atlantic,Bellevue Drug Company,254 Bellevue Ave,Hammonton,8037,Atlantic
Atlantic,Bunting Family Pharmacy,"1337 New Rd., Unit A",Northfield,8225,Atlantic
Atlantic,Genoa Healthcare of Absecon,"312 E White Horse Pike, Room P",Absecon,8201,Atlantic
Atlantic,Medilink Rxcare,44 South White Horse Pike,Hammonton,8037,Atlantic
Atlantic,Sam's Club Pharmacy of Pleasantville,1025 Black Horse Pike,Pleasantville,8232,Atlantic
Atlantic,Sav-On Pharmacy of Mays Landing,4454 Black Horse Pike,Mays Landing,8330,Atlantic
Atlantic,Sav-On Pharmacy of Somers Point,212 New Rd.,Somers Point,8244,Atlantic
Atlantic,Shop Rite Pharmacy of Absecon,616 Whitehorse Pike,Absecon,8201,Atlantic
Atlantic,Shop Rite Pharmacy of Egg Harbor Twp,3003 English Creek Ave,Egg Harbor Twp,8234,Atlantic
Atlantic,Shop Rite Pharmacy of Galloway,401 South Pitney Road,Galloway,8205,Atlantic
Atlantic,Shop Rite Pharmacy of Hammonton,80 South Whitehorse Pike,Hammonton,8037,Atlantic
Atlantic,Shop Rite Pharmacy of Somers Point,23 Bethel Road,Somers Point,8244,Atlantic
Atlantic,Walgreens Pharmacy of Atlantic City,3218 Atlantic Ave,Atlantic City,8401,Atlantic
Atlantic,Walgreens Pharmacy of Egg Harbor Township,2247 Ocean Hghts. Ave.,Egg Harbor Township,8234,Atlantic
Atlantic,Walgreens Pharmacy of Pleasantville,505 W Black Horse Pike,Pleasantville,8232,Atlantic
Atlantic,Walmart Pharmacy of Egg Harbor Township,6801 Black Horse Pike,Egg Harbor Township,8234,Atlantic
Atlantic,Walmart Pharmacy of Hammonton,55 South White Horse Pike,Hammonton,8037,Atlantic
Atlantic,Walmart Pharmacy of Mays Landing,4620 Black Horse Pike,Mays Landing,8330,Atlantic
Atlantic,CVS Pharmacy of Egg Harbor (809),6815 Tilton Rd.,Egg Harbor Township,8234,Atlantic
Atlantic,CVS of Somers Point,191 New Road,Somers Point,8244,Atlantic
Bergen,ACME Markets of Allendale,45 De Mercurio Dr.,Allendale,7401,Bergen
Bergen,ACME Markets of Edgewater,481 River Rd.,Edgewater,7020,Bergen
Bergen,ACME Markets of Fort Lee,2160 Lemoine Ave.,Fort Lee,7024,Bergen
Bergen,ACME Markets of Mahwah,125 Franklin Tpke.,Mahwah,7430,Bergen
Bergen,ACME Markets of Midland Park,136 Lake Ave.,Midland Park,7432,Bergen
Bergen,ACME Markets of Saddle Brook,75 Mayhill St.,Saddle Brook,7663,Bergen
Bergen,Genoa Healthcare of Englewood,"93 W. Palisade Ave., Rm. 128",Englewood,7631,Bergen
Bergen,Genoa Healthcare of Hackensack,25 E. Salem St.,Hackensack,7601,Bergen
Bergen,Ho-Ho-Kus Pharmacy,622 N. Maple Ave.,Ho Ho Kus,7423,Bergen
Bergen,Invictus Pharmacy Dept.,"60 Essex St., Ste. 105",Rochelle Park,7662,Bergen
Bergen,Levy's Pharmacy Llc,299 Stuyvesant Ave,Lyndhurst,7071,Bergen
Bergen,Plymouth Park Pharmacy Inc,11- 12 Saddle River Rd,Fair Lawn,7410,Bergen
Bergen,Rite Aid Pharmacy of Bergenfield,Ten Portland Ave,Bergenfield,7621,Bergen
Bergen,Rite Aid Pharmacy of Hackensack,219 Essex St,Hackensack,7601,Bergen
Bergen,Rite Aid Pharmacy of Township Of Washington,265 Pascack Rd.,Township Of Washington,7676,Bergen
Bergen,Rite Aid Pharmacy of Waldwick,60 Franklin Turnpike,Waldwick,7463,Bergen
Bergen,Sicomac Pharmacy,300 Sicomac Ave.,Wyckoff,7481,Bergen
Bergen,Stop & Shop Pharmacy of Carlstadt,675 Paterson Ave,Carlstadt,7072,Bergen
Bergen,Stop & Shop Pharmacy of Dumont,20 Washington Ave,Dumont,7628,Bergen
Bergen,Stop & Shop Pharmacy of Franklin Lakes,816 Franklin Ave,Franklin Lakes,7417,Bergen
Bergen,Stop & Shop Pharmacy of Hackensack,380 West Pleasantview Ave,Hackensack,7601,Bergen
Bergen,Stop & Shop Pharmacy of Lyndhurst,425 Lewandowski St,Lyndhurst,7071,Bergen
Bergen,Stop & Shop Pharmacy of Ridgewood,175 Franklin Ave,Ridgewood,7450,Bergen
Bergen,Walgreens Pharmacy of Bergenfield,406 S. Washington Ave.,Bergenfield,7621,Bergen
Bergen,Walgreens Pharmacy of Carlstadt,637 Hoboken Rd.,Carlstadt,7072,Bergen
Bergen,Walgreens Pharmacy of Elmwood Park,100 Broadway,Elmwood Park,7407,Bergen
Bergen,Walgreens Pharmacy of Hillsdale,383 Washington Ave,Hillsdale,7642,Bergen
Bergen,Walgreens Pharmacy of Lodi,20 Arnot Street,Lodi,7644,Bergen
Bergen,Walgreens Pharmacy of No. Arlington,475 Ridge Rd.,No. Arlington,7031,Bergen
Bergen,Walgreens Pharmacy of Waldwick,72 Crescent Avenue,Waldwick,7463,Bergen
Bergen,Walmart Pharmacy of Garfield,174 Passaic St.,Garfield,7026,Bergen
Bergen,Walmart Pharmacy of Saddle Brook,189 Route 46 West,Saddle Brook,7663,Bergen
Bergen,Walmart Pharmacy of Teterboro,1 Teterboro Landing Dr.,Teterboro,7608,Bergen
Bergen,Wegmans Food Markets of Montvale,100 Farmview,Montvale,7645,Bergen
Bergen,CVS Pharmacy of Paramus (5300),1000 Bergen Town Center,Paramus,7652,Bergen
Burlington,Boyd's Pharmacy Of Mansfield,"23202 Columbus Rd., Ste E",Columbus,8022,Burlington
Burlington,Boyd's Pharmacy Of Medford,5-100 Wilkins Station Rd.,Medford,8055,Burlington
Burlington,Boyd's Pharmacy Of Pemberton,17 Fort Dix Rd.,Pemberton,8068,Burlington
Burlington,Healthvia Pharmacy,300 E. Greentree Rd.,Marlton,8053,Burlington
Burlington,Mast Pharmacy & Surgical,338 Farnsworth Ave.,Bordentown,8505,Burlington
Burlington,My Family Pharmacy,2005 Mount Holly Rd. Ste. 107,Burlington Township,8016,Burlington
Burlington,Palmyra Pharmacy,1 E. Broad St.,Palmyra,8065,Burlington
Burlington,Paramount Drug,54 E. Scott St,Riverside,8075,Burlington
Burlington,Power'S Pharmacy,558 Lakehurst Rd.,Browns Mills,8015,Burlington
Burlington,Rite Aid Pharmacy of Browns Mills,37 Juliustown Road,Browns Mills,8015,Burlington
Burlington,Rite Aid Pharmacy of Burlington,2093  Route  130  N,Burlington,8016,Burlington
Burlington,Rite Aid Pharmacy of Cinnaminson,1210  Route 130  N.  Ste  1408,Cinnaminson,8077,Burlington
Burlington,Rite Aid Pharmacy of Lumberton,1636 Route 38 Ste. 49,Lumberton,8048,Burlington
Burlington,Rite Aid Pharmacy of Marlton,235 North Maple Ave.,Marlton,8053,Burlington
Burlington,Rite Aid Pharmacy of Medford,"200 Tuckerton Rd, Bldg K",Medford,8055,Burlington
Burlington,Rite Aid Pharmacy of Medford,409 Stokes Road,Medford,8055,Burlington
Burlington,Rite Aid Pharmacy of Moorestown,121 West Main St,Moorestown,8057,Burlington
Burlington,Rite Aid Pharmacy of Willingboro,217 Sunset Road,Willingboro,8046,Burlington
Burlington,Rite Aid Pharmacy of Wrightstown,546 Wrightstown-Sykesville Rd,Wrightstown,8562,Burlington
Burlington,Sam's Club Pharmacy of Cinnaminson,2521 Route 130 South,Cinnaminson,8077,Burlington
Burlington,Sav-On Pharmacy of Bordentown,260 Dunns Mill Rd.,Bordentown,8505,Burlington
Burlington,Sav-On Pharmacy of Browns Mills,18 Broadway,Browns Mills,8015,Burlington
Burlington,Sav-On Pharmacy of Medford,175 Route 70,Medford,8055,Burlington
Burlington,Sav-On Pharmacy of Mt Holly,531 High St Fairgrounds Plaza,Mt Holly,8060,Burlington
Burlington,Sav-On Pharmacy of Willingboro,23 Veterans Parkway,Willingboro,8046,Burlington
Burlington,Shop Rite Pharmacy of Bordentown,622 Route 206,Bordentown,8505,Burlington
Burlington,Shop Rite Pharmacy of Burlington Township,1817 Mt. Holly Rd.,Burlington Township,8016,Burlington
Burlington,Shop Rite Pharmacy of Cinnaminson,"141 Rte. 130 South, Suite K",Cinnaminson,8077,Burlington
Burlington,Shop Rite Pharmacy of Hainesport,"1520 Route 38 East, Bldg. #20, Cross Roads Plaza",Hainesport,8036,Burlington
Burlington,Shop Rite Pharmacy of Marlton,307 West Route 70,Marlton,8053,Burlington
Burlington,Shop Rite Pharmacy of Medford,208 Route 70,Medford,8055,Burlington
Burlington,Shop Rite Pharmacy of Mount Laurel,892 Union Mill Road,Mount Laurel,8054,Burlington
Burlington,Shop Rite Pharmacy of Mount Laurel,127 Ark Road,Mount Laurel,8054,Burlington
Burlington,Smith Brothers Drug,25 W Main St,Maple Shade,8052,Burlington
Burlington,Walgreens Pharmacy of Willingboro,4296 Route 130,Willingboro,8046,Burlington
Burlington,Walmart Pharmacy of Burlington,2106 Mt. Holly Road,Burlington,8016,Burlington
Burlington,Walmart Pharmacy of Cinnaminson,2501 Route 130 South,Cinnaminson,8077,Burlington
Burlington,Walmart Pharmacy of Marlton,150 E Route 70,Marlton,8053,Burlington
Burlington,Stines Apothecary,1491 Route 38,Hainesport,8036,Burlington
Camden,Covered Bridge Pharmacy,1501 Rte. 70 E.,Cherry Hill,8034,Camden
Camden,Farmacia Sunray,2500 Federal St.,Camden,8105,Camden
Camden,Genoa Healthcare of Camden,"400 Market St., Ste. 200",Camden,8102,Camden
Camden,"Gus' Pharmacy, Llc D/B/A Kennedy Pharmacy",42 E. Laurel Rd #1900,Stratford,8084,Camden
Camden,"Medilink Rx Care, Llc",709 Haddonfield-Berlin Rd.,Voorhees,8043,Camden
Camden,Rite Aid Pharmacy of Atco,375 White Horse Pike,Atco,8004,Camden
Camden,Rite Aid Pharmacy of Barrington,501 Clements Bridge Road,Barrington,8007,Camden
Camden,Rite Aid Pharmacy of Berlin,186 S Whitehorse Pike,Berlin,8009,Camden
Camden,Rite Aid Pharmacy of Brooklawn,702 Browning Road,Brooklawn,8030,Camden
Camden,Rite Aid Pharmacy of Camden,2  South Broadway,Camden,8103,Camden
Camden,Rite Aid Pharmacy of Cherry Hill,823 Cooper Landing Road,Cherry Hill,8002,Camden
Camden,Rite Aid Pharmacy of Cherry Hill,1360 Brace Road,Cherry Hill,8034,Camden
Camden,Rite Aid Pharmacy of Clementon,1360 Blackwood Clementon,Clementon,8021,Camden
Camden,Rite Aid Pharmacy of Clementon,101 Whitehorse Pike,Clementon,8021,Camden
Camden,Rite Aid Pharmacy of Collingswood,664 Haddon Ave,Collingswood,8108,Camden
Camden,Rite Aid Pharmacy of Haddon Township,249 Cuthbert Blvd.,Haddon Township,8107,Camden
Camden,Rite Aid Pharmacy of Haddonfield,715 Haddon Ave,Haddonfield,8033,Camden
Camden,Rite Aid Pharmacy of Haddonfield,"423 W. Crystal Lake Ave., Ste. 7",Haddonfield,8033,Camden
Camden,Rite Aid Pharmacy of Laurel Springs,1492 Chews Landing,Laurel Springs,8021,Camden
Camden,Rite Aid Pharmacy of Pennsauken,4902 Westfield Ave,Pennsauken,8110,Camden
Camden,Rite Aid Pharmacy of Pennsauken,7835 Maple Ave,Pennsauken,8109,Camden
Camden,Rite Aid Pharmacy of Sicklerville,403 Sicklerville Road,Sicklerville,8081,Camden
Camden,Rite Aid Pharmacy of Sicklerville,2090 Erial Clementon Rd,Sicklerville,8081,Camden
Camden,Rite Aid Pharmacy of Somerdale,608 N Warwick Rd,Somerdale,8083,Camden
Camden,Rite Aid Pharmacy of Stratford,100 Warwick Road,Stratford,8084,Camden
Camden,Rite Aid Pharmacy of Voorhees,480 Centennial Blvd,Voorhees,8043,Camden
Camden,Rite Aid Pharmacy of Voorhees,111 Rte. 73,Voorhees,8043,Camden
Camden,Sav-On Pharmacy of Audubon,100 N. Blackhorse Pk.,Audubon,8106,Camden
Camden,Sav-On Pharmacy of Runnemede,501 E Evesham Rd,Runnemede,8078,Camden
Camden,Sav-On Pharmacy of Sicklerville,515 Berlin-Cross Keys Rd.,Sicklerville,8081,Camden
Camden,Sav-On Pharmacy of Voorhees,700 Haddonfield-Berlin Rd,Voorhees,8043,Camden
Camden,Shop Rite Pharmacy of Clementon,1224 Blackwd-Clementon Rd,Clementon,8021,Camden
Camden,Shop Rite of Laurel Springs,1200 Chews Landing Road,Laurel Springs,8021,Camden
Camden,Shop Rite Pharmacy of Lawnside,130 White Horse Pike,Lawnside,8045,Camden
Camden,Shop Rite Pharmacy of Sicklerville,542 Berlin-Cross Keys Road,Sicklerville,8081,Camden
Camden,Shop Rite Pharmacy of West Berlin,Route 73 & Minick Ave,West Berlin,8091,Camden
Camden,Walgreens Pharmacy of Cherry Hill,504 Kings Hwy N,Cherry Hill,8034,Camden
Camden,Walgreens Pharmacy of Glendora,1301 Black Horse Pike,Glendora,8029,Camden
Camden,Walgreens Pharmacy of Mount Ephraim,20 W. Kings Hwy.,Mount Ephraim,8059,Camden
Camden,Walgreens Pharmacy of Sicklerville,590 Cross Keys Road,Sicklerville,8081,Camden
Camden,Walmart Pharmacy of Audubon,130 Blackhorse Pike,Audubon,8106,Camden
Camden,Walmart Pharmacy of Cherry Hill,500 Route 38,Cherry Hill,8034,Camden
Camden,Walmart Pharmacy of Somerdale,1 Coopertowne Blvd.,Somerdale,8083,Camden
Camden,Walmart Pharmacy of Turnersville,3501 Route 42,Turnersville,8012,Camden
Camden,Walmart Pharmacy of West Berlin,265 North Route 73,West Berlin,8091,Camden
Camden,CVS Pharmacy of Mount Ephraim (477),24 South Black Horse Pike,Mount Ephraim,8059,Camden
Cape May,ACME Markets of Ocean City,800 W. Avenue,Ocean City,8226,Cape May
Cape May,Genoa Healthcare of Cape May Court House,"128 Crest Haven Rd., Ste. 100",Cape May Court House,8210,Cape May
Cape May,Sav-On Pharmacy of North Cape May,3845 Bayshore Road,North Cape May,8204,Cape May
Cape May,Sav-On Pharmacy of Ocean View,2087 Route 9 Ste 11,Ocean View,8230,Cape May
Cape May,Shop Rite Pharmacy of Marmora,4 W. Roosevelt Blvd.,Marmora,8223,Cape May
Cape May,Shop Rite Pharmacy of Rio Grande,1700 Route 47 S,Rio Grande,8242,Cape May
Cape May,Village Pharmacy,38 Tuckahoe Road,Marmora,8223,Cape May
Cape May,Walgreens Pharmacy of Wildwood,5000 Park Blvd.,Wildwood,8260,Cape May
Cape May,Walmart Pharmacy of Rio Grande,3159 Route 9 South.,Rio Grande,8242,Cape May
Cape May,CVS Pharmacy of Cape May (429),"11 Court House South Dennis Rd., Ste. 9",Cape May Court House,8210,Cape May
Cumberland,Cornerstone Pharmacy,2757 South Main Rd,Vineland,8360,Cumberland
Cumberland,Genoa Healthcare of Millville,2038 Carmel Rd Rm 26,Millville,8332,Cumberland
Cumberland,Health First Pharmacy,"1200 N High St., Ste. 6",Millville,8332,Cumberland
Cumberland,Hernando'S Hometown Pharmacy,741 E. Landis Ave.,Vineland,8360,Cumberland
Cumberland,Inspira Health Pharmacy - Vineland,1505 West Sherman Ave.,Vineland,8360,Cumberland
Cumberland,Rite Aid Pharmacy of Bridgeton,1070 North Pearl St,Bridgeton,8302,Cumberland
Cumberland,Rite Aid Pharmacy of Bridgeton,52 East Broad St,Bridgeton,8302,Cumberland
Cumberland,Rite Aid Pharmacy of Millville,907 North High St,Millville,8332,Cumberland
Cumberland,Rite Aid Pharmacy of Vineland,1889 S. Lincoln Ave.,Vineland,8361,Cumberland
Cumberland,Rite Aid Pharmacy of Vineland,7 West Landis Avenue,Vineland,8360,Cumberland
Cumberland,Rite Aid Pharmacy of Vineland,970 North Main Road,Vineland,8360,Cumberland
Cumberland,Rite Aid Pharmacy of Vineland,2791 S. Delsea Drive,Vineland,8360,Cumberland
Cumberland,Sav-On Pharmacy of Vineland,301 South Main Road,Vineland,8360,Cumberland
Cumberland,Shop Rite Pharmacy of Millville,2130   N.   2Nd Street,Millville,8332,Cumberland
Cumberland,Shop Rite Pharmacy of Upper Deerfield,1000 North Pearl Street,Upper Deerfield,8302,Cumberland
Cumberland,Shop Rite Pharmacy of Vineland,3600 E Landis Ave,Vineland,8361,Cumberland
Cumberland,Shop Rite Pharmacy of Vineland,1255 West Landis Avenue,Vineland,8360,Cumberland
Cumberland,Walgreens Pharmacy of Millville,1111 North High Street,Millville,8332,Cumberland
Cumberland,Walgreens Pharmacy of Vineland,1015 North Main Rd.,Vineland,8360,Cumberland
Cumberland,Walmart Pharmacy of Bridgeton,1130  Highway 77,Bridgeton,8302,Cumberland
Cumberland,Walmart Pharmacy of Millville,2291 No Second St,Millville,8332,Cumberland
Cumberland,Walmart Pharmacy of Vineland,1070 W. Landis Ave.,Vineland,8360,Cumberland
Cumberland,CVS Pharmacy of Millville (2207),1209 N High St,Millville,8332,Cumberland
Cumberland,Altruix,1111 Village Dr,Millville,8332,Cumberland
Essex,Angelo Pharmacy,492 Ferry St.,Newark,7105,Essex
Essex,Belleville Pharmacy,338 Washington Ave,Belleville,7109,Essex
Essex,Broadway Health Pharmacy,57 Broadway,Newark,7104,Essex
Essex,Coordinated Care Network Pharmacy,268 Martin Luther King Jr. Blvd.,Newark,7102,Essex
Essex,E & M Pharmacy,205 South Essex Avenue,Orange,7050,Essex
Essex,East Orange Pharmacy & Surgicals,"310 Central Ave.,  Suite 111",East Orange,7018,Essex
Essex,Fourth Avenue Pharmacy,329 Roseville Ave,Newark,7107,Essex
Essex,Garys Pharmacy,349 Franklin Ave,Nutley,7110,Essex
Essex,Giannotto'S Pharmacy,195 First Avenue,Newark,71072,Essex
Essex,Guardy'S Pharmacy,403-409 Bloomfield Ave.,Newark,7107,Essex
Essex,"Hemschem, Inc., D/B/A Campus Pharmacy",195 Central Ave.,Newark,7103,Essex
Essex,Kayes Drug Store,1069 Bergen Street,Newark,7112,Essex
Essex,Kings Pharmacy,33 Park Avenue,Newark,7104,Essex
Essex,Komishane'S Pharmacy,199 Stuyvesant Ave,Newark,7106,Essex
Essex,Leo Hopp Pharmacy,447 Orange St,Newark,7107,Essex
Essex,Liss Pharmacy,794 Mt Prospect Ave,Newark,7104,Essex
Essex,"Livingston Pharmacy (Rx Team, Inc.)",91 E. Mt. Pleasant Ave.,Livingston,7039,Essex
Essex,Lyons Pharmacy,"471 Lyons Ave., #79",Irvington,7111,Essex
Essex,Newark Pharmacy Llc,"635 Market St., Unit 1C",Newark,7105,Essex
Essex,Rite Aid Pharmacy of East Orange,543 Central Ave,East Orange,7018,Essex
Essex,Rite Aid Pharmacy of Irvington,35 Mill Road,Irvington,7111,Essex
Essex,Rite Aid Pharmacy of Newark,104  12Th Avenue,Newark,7107,Essex
Essex,Sanford Community Pharmacy Llc,1041 South Orange Avenue,Newark,7106,Essex
Essex,Serket Pharmacy,8 Church St.,Montclair,7042,Essex
Essex,Shop Rite Pharmacy of Bloomfield,1409 Broad Street,Bloomfield,7003,Essex
Essex,Shop Rite Pharmacy of East Orange,533 Main St.,East Orange,7018,Essex
Essex,Shop Rite Pharmacy of Livingston,483 S Livingston Ave,Livingston,7039,Essex
Essex,Shop Rite Pharmacy of Newark,206 Springfield Ave.,Newark,7103,Essex
Essex,Shop Rite Pharmacy of Nutley,437 Franklin Ave,Nutley,7110,Essex
Essex,Shop Rite Pharmacy of West Orange,1 Rooney Circle,West Orange,7052,Essex
Essex,Stop & Shop Pharmacy of Bloomfield,8 Franklin St,Bloomfield,7003,Essex
Essex,Stop & Shop Pharmacy of South Orange,407 Valley St.,South Orange,7079,Essex
Essex,"Vp Drugs, LLC",23 Court St.,Newark,7102,Essex
Essex,Walgreens Pharmacy of Belleville,345 Franklin Ave.,Belleville,7109,Essex
Essex,Walgreens Pharmacy of Irvington,810 Springfield Ave.,Irvington,7111,Essex
Essex,Walgreens Pharmacy of Newark,361 Bergen St.,Newark,7103,Essex
Essex,Walgreens Pharmacy of Newark,61 Ferry Street,Newark,7105,Essex
Essex,Walgreens Pharmacy of Orange,240-250 Central Avenue,Orange,7050,Essex
Essex,Walgreens Pharmacy of Roseland,45 Eisenhower Pkwy.,Roseland,7068,Essex
Essex,Weisbrod'S Pharmacy LLC,980 South Orange Ave,Newark,7106,Essex
Essex,West Orange Family Pharmacy,310 Main St.,West Orange,7052,Essex
Essex,CVS Pharmacy of West Caldwell (761),560 Passaic Ave,West Caldwell,7006,Essex
Essex,Michael's Pharmacy,287 South Orange Ave.,Newark,7103,Essex
Essex,Better Health Pharmacy,460B Central Ave.,East Orange,7018,Essex
Essex,Main Street Pharmacy,199 Main St.,Orange,7050,Essex
Essex,White Oak Pharmacy,88 Union Ave,Nutley,7110,Essex
Gloucester,Genoa Healthcare of Sewell,"200 Holly Dell Dr., Ste. P",Sewell,8080,Gloucester
Gloucester,Inspira Health Pharmacy - Mullica Hill,698 Mullica Hill Rd.,Mullica Hill,8062,Gloucester
Gloucester,Rite Aid Pharmacy of Clayton,236 S. Delsea Dr.,Clayton,8312,Gloucester
Gloucester,Rite Aid Pharmacy of Deptford,860 Cooper Street,Deptford,8096,Gloucester
Gloucester,Rite Aid Pharmacy of Gibbstown,380 Harmony Road,Gibbstown,8027,Gloucester
Gloucester,Rite Aid Pharmacy of Logan Township,335 Village Center Dr.,Logan Township,8085,Gloucester
Gloucester,Rite Aid Pharmacy of Mantua,210 Bridgeton Pike,Mantua,8051,Gloucester
Gloucester,Rite Aid Pharmacy of Mullica Hill,108 Swedesboro Rd Suite 20,Mullica Hill,8062,Gloucester
Gloucester,Rite Aid Pharmacy of Paulsboro,1 East Broad Street,Paulsboro,8066,Gloucester
Gloucester,Rite Aid Pharmacy of Sewell,490 Hurfville-Cross Keys,Sewell,8080,Gloucester
Gloucester,Rite Aid Pharmacy of Sewell,500 Woodbury Glassboro Rd,Sewell,8080,Gloucester
Gloucester,Rite Aid Pharmacy of West Deptford,1000 Kings Hwy.,West Deptford,8086,Gloucester
Gloucester,Rite Aid Pharmacy of Williamstown,1881 N Black Horse Pike,Williamstown,8094,Gloucester
Gloucester,Rite Aid Pharmacy of Williamstown,1434 S. Black Horse Pk.,Williamstown,8094,Gloucester
Gloucester,Sam's Club Pharmacy of Deptford,"2000 Clements Bridge Rd., Ste. 116",Deptford,8096,Gloucester
Gloucester,Sav-On Pharmacy of Sewell,415 Egg Harbor Road,Sewell,8080,Gloucester
Gloucester,Sav-On Pharmacy of Swedesboro,1619 Center Square Rd.,Swedesboro,8085,Gloucester
Gloucester,Sav-On Pharmacy of W. Deptford,631 Mantua Avenue,W. Deptford,8096,Gloucester
Gloucester,Shop Rite Pharmacy of Deptford,1077 Mantua Pike,Deptford,8096,Gloucester
Gloucester,Shop Rite Pharmacy of Glassboro,201 Dalton Drive,Glassboro,8028,Gloucester
Gloucester,Shop Rite Pharmacy of Mullica Hill,143 Bridgeton Pike,Mullica Hill,8062,Gloucester
Gloucester,Shop Rite Pharmacy of Sewell,382 Egg Harbor Road,Sewell,8080,Gloucester
Gloucester,Shop Rite Pharmacy of Williamstown,100 S Blackhorse Pike,Williamstown,8094,Gloucester
Gloucester,Walmart Pharmacy of Williamstown,1840 S. Black Horse Pike,Williamstown,8094,Gloucester
Gloucester,CVS Pharmacy of Williamstown (340),1329 S. Blackhorse Pike,Williamstown,8094,Gloucester
Gloucester,Walmart Pharmacy of Deptford,2000 Celments Bridge Rd Ste 100,Deptford,8096,Gloucester
Hudson,ACME Markets of Jersey City,321 Route 440,Jersey City,7305,Hudson
Hudson,ACME Markets of Jersey City,125 18th Street,Jersey City,7310,Hudson
Hudson,ACME Markets of West New York,19-21 Ave At Port Imperial,West New York,7093,Hudson
Hudson,Atlas Drug,8416 Kennedy Blvd,North Bergen,7047,Hudson
Hudson,Bayonne Pharmacy,651 Broadway,Bayonne,7002,Hudson
Hudson,"Bond Drugs, Inc.",371 Central Ave.,Jersey City,7307,Hudson
Hudson,Broadway Health Pharmacy,974 Broadway,Bayonne,7002,Hudson
Hudson,Concord Pharmacy,317 Martin Luther King Jr Dr,Jersey City,7305,Hudson
Hudson,Galaxy Pharmacy,220 Newark Ave,Jersey City,7302,Hudson
Hudson,Garfield Healthcare Pharmacy,935 Garfield Ave.,Jersey City,7304,Hudson
Hudson,Health Aid Drugs Inc,212 Palisades Avenue,Jersey City,7306,Hudson
Hudson,Hudacko'S Pharmacy (Dept.),861 Broadway,Bayonne,7002,Hudson
Hudson,Jerry'S Drug & Surgical Supply Pharmacy,455 Broadway,Bayonne,7002,Hudson
Hudson,Jersey Drugs,286 Central Ave.,Jersey City,7307,Hudson
Hudson,Liberty Pharmacy,265 Broadway,Bayonne,7002,Hudson
Hudson,Medicine Man Pharmacy & Compounding,511 Washington Street,Hoboken,7030,Hudson
Hudson,Midtown Drugs,581 Kearny Ave,Kearny,7032,Hudson
Hudson,Newport Pharmacy,165 Erie St.,Jersey City,7302,Hudson
Hudson,Novecks Pharmacy,7823 Bergenline Ave,North Bergen,7047,Hudson
Hudson,Pavonia Pharmacy,600 Pavonia Ave,Jersey City,7306,Hudson
Hudson,Quik Drugs Pharmacy,"40 Meadowlands Pkwy., Ste. 3",Secaucus,7094,Hudson
Hudson,Rite Aid Pharmacy of Bayonne,1097 Broadway,Bayonne,7002,Hudson
Hudson,Rite Aid Pharmacy of Jersey City,981 West Side Avenue,Jersey City,7306,Hudson
Hudson,Sam's Club  Phcy.  Dept.   (10-4774),300 Park Place,Secaucus,7094,Hudson
Hudson,St. Marina Pharmacy �,458 Avenue C�,Bayonne,7002,Hudson
Hudson,Stop & Shop Pharmacy of Bayonne,1 Le Fante Way,Bayonne,7002,Hudson
Hudson,Summit Healthcare Pharmacy,103 Summit Ave.,Jersey City,7304,Hudson
Hudson,Town Pharmacy of West New York,4911 Bergenline Ave.,West New York,7093,Hudson
Hudson,Ultra Care Pharmacy of Bayonne,557 Broadwway,Bayonne,7002,Hudson
Hudson,Ultra Care Pharmacy of Jersey City,568 Westside Avenue,Jersey City,7304,Hudson
Hudson,Verona Pharmacy,"739 Communipaw Ave, Unit A",Jersey City,7304,Hudson
Hudson,Vitalis Pharmacy,3495 Kennedy Blvd.,Jersey City,7307,Hudson
Hudson,Walgreens Pharmacy of Jersey City,1561 John F Kennedy Blvd,Jersey City,7305,Hudson
Hudson,Walgreens Pharmacy of Kearny,248 Kearny Ave,Kearny,7032,Hudson
Hudson,Walmart Pharmacy of Bayonne,500 Bayonne Crossing Way,Bayonne,7002,Hudson
Hudson,Walmart Pharmacy of Kearny,150 Harrison Ave.,Kearny,7032,Hudson
Hudson,Walmart Pharmacy of North Bergen,2100 88Th St.,North Bergen,7047,Hudson
Hudson,Walmart Pharmacy of Secaucus,400 Park Place,Secaucus,7094,Hudson
Hudson,JFK Pharmacy,2818A John F. Kennedy Blvd.,Jersey City,7306,Hudson
Hudson,CVS Pharmacy of Secaucus (808),101 Plaza Center,Secaucus,7094,Hudson
Hunterdon,Bowkers Pharmacy,46 Bridge St.,Milford,8848,Hunterdon
Hunterdon,Grayrock Pharmacy,"2004 State Route 31, Unit 4",Clinton,8809,Hunterdon
Hunterdon,Holland Center Pharmacy,621 Milford-Warren Glen Rd.,Milford,8848,Hunterdon
Hunterdon,Rite Aid Pharmacy of Whitehouse Station,531 Rte. 22 E.,Whitehouse Station,8889,Hunterdon
Hunterdon,Shop Rite Pharmacy of Clinton,50 Walmart Plaza,Clinton,8809,Hunterdon
Hunterdon,Shop Rite Pharmacy of Flemington,272 Highway 202 & Rte 31,Flemington,8822,Hunterdon
Hunterdon,Stop & Shop Pharmacy of Flemington,334 State Route 31,Flemington,8822,Hunterdon
Hunterdon,Walgreens Pharmacy of Flemington,29  Route  31,Flemington,8822,Hunterdon
Hunterdon,Walmart Pharmacy of Clinton,1 Walmart Plaza,Clinton,8809,Hunterdon
Hunterdon,Walmart Pharmacy of Flemington,152 Route 31 North,Flemington,8822,Hunterdon
Hunterdon,CVS Pharmacy of Flemington (2576),190 Highway 31 North,Flemington,8822,Hunterdon
Hunterdon,CVS Pharmacy of Lambertville (6873),1 Cherry St.,Lambertville,8530,Hunterdon
Mercer,Episcopo's Pharmacy,1125 Chambers St.,Trenton,8610,Mercer
Mercer,Ewing Pharmacy,"1400 Parkway Ave., #A2",Ewing,8628,Mercer
Mercer,Henry J. Austin Pharmacy Dept.,321 N. Warren St.,Trenton,8618,Mercer
Mercer,Ivira Pharmacy,"104 Hickory Corner Rd., Unit 106",East Windsor,8520,Mercer
Mercer,Mill Hill Pharmacy,334 S. Broad St.,Trenton,8608,Mercer
Mercer,Olden Pharmacy,930 S. Olden Ave.,Hamilton,8610,Mercer
Mercer,Rite Aid Pharmacy of Trenton,1801 Kuser Road,Trenton,8690,Mercer
Mercer,Rite Aid Pharmacy of Trenton,2370 Route 33,Trenton,8691,Mercer
Mercer,Sav-On Pharmacy of Hamilton Square,953 Route 33,Hamilton Square,8690,Mercer
Mercer,Sav-On Pharmacy of Trenton,4400 South Broad Street,Trenton,8620,Mercer
Mercer,Shop Rite Pharmacy of East Windsor,319 Route #130,East Windsor,8520,Mercer
Mercer,Shop Rite Pharmacy of Lawrenceville,3373 Brunswick Pike,Lawrenceville,8648,Mercer
Mercer,Shop Rite Pharmacy of Pennington,2555 Pennington Rd.,Pennington,8534,Mercer
Mercer,Shop Rite Pharmacy of Robbinsville,130 Marketplace Blvd.,Robbinsville,8691,Mercer
Mercer,Shop Rite Pharmacy of Trenton,1750 North Olden Avenue,Trenton,8638,Mercer
Mercer,Shop Rite Pharmacy of Trenton,1225 Highway  33,Trenton,8690,Mercer
Mercer,Stop & Shop Pharmacy of Pennington,800F Denow Road,Pennington,8534,Mercer
Mercer,Walgreens Pharmacy of Hamilton,2021 Nottingham Way,Hamilton,8619,Mercer
Mercer,Walgreens Pharmacy of Pennington,"25 Route 31 S, Ste T",Pennington,8534,Mercer
Mercer,Walgreens Pharmacy of Trenton,4125 S Broad St,Trenton,8620,Mercer
Mercer,Walmart Pharmacy of Hamilton,700 Market Place Way,Hamilton,8691,Mercer
Mercer,Walmart Pharmacy of Hamilton,1750 Nottingham Way,Hamilton,8619,Mercer
Mercer,Wegmans Food Markets of Princeton,240 Nassau Park Blvd.,Princeton,8540,Mercer
Mercer,Westside Pharmacy,"215 N. Heritage Ave., #9",Trenton,8618,Middlesex
Mercer,CVS Pharmacy of Trenton (6038),1 Sunnybrae Blvd,Trenton,8620,Mercer
Mercer,CVS Pharmacy of Hamilton (6039),200 Route 33,Hamilton,8619,Mercer
Middlesex,ACME Markets of Old Bridge,3500 Us Highway 9,Old Bridge,8857,Middlesex
Middlesex,"Ar-Ex Pharmacy, Inc.",370 New Brunswick Ave.,Fords,8863,Middlesex
Middlesex,"Boro Hall Healthcare, Inc.",565 Boundbrook Road,Middlesex,8846,Middlesex
Middlesex,Boyt Drug,411 Main Street,Metuchen,8840,Middlesex
Middlesex,Carteret Pharmacy and Surgicals,29 Washington Ave.,Carteret,7008,Middlesex
Middlesex,Central Jersey Pharmacy,275 Hobart St.,Perth Amboy,8861,Middlesex
Middlesex,Colonia Natural Pharmacy,515 Inman Ave.,Colonia,7067,Middlesex
Middlesex,Devines Pharmacy,2 S. Washington Ave.,Dunellen,8812,Middlesex
Middlesex,Drug Mart,1249 W. 7Th Street,South Plainfield,7080,Middlesex
Middlesex,Health Plus Pharmacy And Surgicals,85 Main St.,South River,8882,Middlesex
Middlesex,Hoffman's Pharmacy,1-7 Laurence Parkway,Laurence Harbor,8879,Middlesex
Middlesex,Loving Care Pharmacy,1653 Lincoln Highway,Edison,8817,Middlesex
Middlesex,Madura Pharmacy,115 N Broadway,South Amboy,8879,Middlesex
Middlesex,Quick Mart Pharmacy,777 Washington Road,Parlin,8859,Middlesex
Middlesex,Rapps Ltc Pharmacy,680 Bound Brook Rd.,Middlesex,8846,Middlesex
Middlesex,Ray Pharmacy,187 North Ave.,Dunellen,8812,Middlesex
Middlesex,Rite Aid Pharmacy of Edison,10 Lincoln Highway,Edison,8820,Middlesex
Middlesex,Rite Aid Pharmacy of Highland Park,332-336 Raritan Ave,Highland Park,8904,Middlesex
Middlesex,Rite Aid Pharmacy of New Brunswick,366 George Street,New Brunswick,8901,Middlesex
Middlesex,Rite Aid Pharmacy of North Brunswick,841 Georges Rd.,North Brunswick,8902,Middlesex
Middlesex,Rite Aid Pharmacy of Parlin,3553 Washington Rd.,Parlin,8859,Middlesex
Middlesex,Rite Aid Pharmacy of Perth Amboy,76 Smith Street,Perth Amboy,8861,Middlesex
Middlesex,Sam's Club Pharmacy of Edison,883 Us Hwy 1,Edison,8817,Middlesex
Middlesex,Shop Rite Pharmacy of East Brunswick,1422 West Prospect St,East Brunswick,8816,Middlesex
Middlesex,Shop Rite Pharmacy of Edison,Route 1 And Old Post Road,Edison,8817,Middlesex
Middlesex,Shop Rite Pharmacy of Monmouth Junction,4154 Us Highway 1,Monmouth Junction,8852,Middlesex
Middlesex,Shop Rite Pharmacy of North Brunswick,400 Renaissance Blvd.,North Brunswick,8902,Middlesex
Middlesex,Shop Rite Pharmacy of Old Bridge,2239 Rt 9,Old Bridge,8857,Middlesex
Middlesex,Shop Rite Pharmacy of Parlin,2909 Washington Rd,Parlin,8859,Middlesex
Middlesex,Shop Rite Pharmacy of Piscataway,1306 Centennial Avenue,Piscataway,8854,Middlesex
Middlesex,Shop Rite Pharmacy of South Plainfield,3600 Park Ave.,South Plainfield,7080,Middlesex
Middlesex,Shop Rite Pharmacy of Spotswood,380 Summerhill Rd.,Spotswood,8884,Middlesex
Middlesex,Shop Rite Pharmacy of Woodbridge,877 St George Ave,Woodbridge,7095,Middlesex
Middlesex,South Brunswick Pharmacy,485 Georges Rd. Suite 110,Dayton,8810,Middlesex
Middlesex,Sri Venkata Inc / Dba Carepoint Pharmacy,10 Plainfield Ave.,Piscataway,8854,Middlesex
Middlesex,Stop & Shop Pharmacy of East Brunswick,647 Rte. 18 S,East Brunswick,8816,Middlesex
Middlesex,Stop & Shop Pharmacy of Monroe Township,1600 Perrineville Road,Monroe Township,8831,Middlesex
Middlesex,Stop & Shop Pharmacy of Piscataway,581 Stelton Road,Piscataway,8854,Middlesex
Middlesex,The Medicine Shoppe,"458 Amboy Ave., Ste. 2",Woodbridge,7095,Middlesex
Middlesex,Town Drugs & Surgical,164 Smith St.,Perth Amboy,8861,Middlesex
Middlesex,"Truth Pharmacy, Inc.",432 Hall Avenue,Perth Amboy,8861,Middlesex
Middlesex,Twin City Pharmacy,1708 Park Avenue,South Plainfield,7080,Middlesex
Middlesex,Ultra Care Pharmacy of New Brunswick,272 George St.,New Brunswick,8901,Middlesex
Middlesex,Walgreens Pharmacy of New Brunswick,20 Jersey Ave.,New Brunswick,8901,Middlesex
Middlesex,Walgreens Pharmacy of Old Bridge,2601 Route 516,Old Bridge,8857,Middlesex
Middlesex,Walgreens Pharmacy of Perth Amboy,520 Convery Blvd.,Perth Amboy,8861,Middlesex
Middlesex,Walgreens Pharmacy of Sayreville,521 Raritan St.,Sayreville,8872,Middlesex
Middlesex,Walmart Pharmacy of East Brunswick,290 State Rte. 18,East Brunswick,8816,Middlesex
Middlesex,Walmart Pharmacy of Edison,2220 Route 27,Edison,8817,Middlesex
Middlesex,Walmart Pharmacy of North Brunswick,979 Route 1,North Brunswick,8902,Middlesex
Middlesex,Walmart Pharmacy of Old Bridge,2825 Highway Rte. 18,Old Bridge,8857,Middlesex
Middlesex,Walmart Pharmacy of Old Bridge,1126 Route 9,Old Bridge,8857,Middlesex
Middlesex,Walmart Pharmacy of Piscataway,1303 Centennial Ave,Piscataway,8854,Middlesex
Middlesex,Walmart Pharmacy of Woodbridge,306 Us Highway 9 North,Woodbridge,7095,Middlesex
Middlesex,Wegmans Food Markets of Woodbridge,15 Woodbridge Center Drive,Woodbridge,7095,Middlesex
Middlesex,YFCC Pharmacy,2124 A State Rte. 27,Edison,8817,Monmouth
Middlesex,CVS Pharmacy of Plainsboro (817),4 Schalks Crossing Rd,Plainsboro,8536,Middlesex
Middlesex,Super Health Pharmacy,101 New Brunswick Ave.,Hopelawn,8861,Middlesex
Monmouth,ACE Pharmacy,186 Broadway,Long Branch,7740,Monmouth
Monmouth,ACME Markets of Wall Township,2007 State Route 35,Wall Township,7719,Monmouth
Monmouth,Adler's Pharmacy,67 Monmouth Road,Oakhurst,7755,Monmouth
Monmouth,Bayshore Homecare Phcy.,"733 N. Beers St., Ste. L1",Holmdel,7733,Monmouth
Monmouth,Bayshore Pharmacy,2 Bayshore Plaza,Atlantic Highlands,7716,Monmouth
Monmouth,Belmar Town Pharmacy,911 Main St.,Belmar,7719,Monmouth
Monmouth,Campbell S Pharmacy,2175  Highway 35,Sea Girt,8750,Monmouth
Monmouth,Colts Neck Pharmacy,"420 Route 34, Ste. 309",Colts Neck,7722,Monmouth
Monmouth,Diamond'S Pharmacy,444 Ocean Blvd,Long Branch,7740,Monmouth
Monmouth,Drugsmart Pharmacy Dept.,300 Main St.,Keansburg,7734,Monmouth
Monmouth,Genoa Healthcare of Red Bank,270 State Route  35,Red Bank,7701,Monmouth
Monmouth,Hazlet Pharmacy Inc,2874 Hwy. 35 South,Hazlet,7730,Monmouth
Monmouth,Homestead Pharmacy,601 Broadway,Long Branch,7740,Monmouth
Monmouth,Keansburg Pharmacy,199 Main St.,Keansburg,7734,Monmouth
Monmouth,Marlboro Medical Arts Pharmacy Dept.,479 Newman Springs Rd.,Marlboro,7746,Monmouth
Monmouth,Oceanport Pharmacy,271 East Main St.,Oceanport,7757,Monmouth
Monmouth,Pharmacy Town,1590 State Highway 35,Ocean,7712,Monmouth
Monmouth,Quick Med Pharmacy,1221 Main St.,Asbury Park,7712,Monmouth
Monmouth,Ramtown Pharmacy,145 Newtons Corner Rd.,Howell,7731,Monmouth
Monmouth,Rite Aid Pharmacy of Hazlet,1360 Route  36,Hazlet,7730,Monmouth
Monmouth,Rite Aid Pharmacy of Manasquan,149 Main Street,Manasquan,8736,Monmouth
Monmouth,Rite Aid Pharmacy of Neptune,75 S. Main St.,Neptune,7753,Monmouth
Monmouth,Rite Aid Pharmacy of Port Monmouth,200 Wilson Ave.,Port Monmouth,7758,Monmouth
Monmouth,Rite Aid Pharmacy of Tinton Falls,"4057 Asbury Avenue, Ste. 8",Tinton Falls,7753,Monmouth
Monmouth,Rite Aid Pharmacy of Tinton Falls,596 Shrewsbury Ave.,Tinton Falls,7701,Monmouth
Monmouth,Sam's Club Pharmacy of Freehold,320 West Main St.,Freehold,7728,Monmouth
Monmouth,Sav-On Drugs,16 East Front Street,Keyport,7735,Monmouth
Monmouth,Sav-On Pharmacy of Lincroft,616 Newman Springs Road,Lincroft,7738,Monmouth
Monmouth,Shop Rite Pharmacy of Freehold,3599 Rt 9,Freehold,7728,Monmouth
Monmouth,Shop Rite Pharmacy of Hazlet,3120 Hwy 35,Hazlet,7730,Monmouth
Monmouth,Shop Rite Pharmacy of Holmdel,10 Centerville Rd,Holmdel,7733,Monmouth
Monmouth,Shop Rite Pharmacy of Howell,4594 Us Hwy 9,Howell,7731,Monmouth
Monmouth,Shop Rite Pharmacy of Manasquan,2433 Highway 34,Manasquan,8736,Monmouth
Monmouth,Shop Rite Pharmacy of Matawan,318  Lloyd Road.,Matawan,7747,Monmouth
Monmouth,Shop Rite Pharmacy of Middletown,1500 Route 35,Middletown,7748,Monmouth
Monmouth,Shop Rite Pharmacy of Morganville,280 U.S. Route #9,Morganville,7751,Monmouth
Monmouth,Shop Rite Pharmacy of Neptune City,2200 U S Highway #66,Neptune City,7753,Monmouth
Monmouth,Shop Rite Pharmacy of Shrewsbury,1151 Shrewsbury Ave,Shrewsbury,7702,Monmouth
Monmouth,Shop Rite Pharmacy of Wall,1732 State Hwy 35,Wall,7719,Monmouth
Monmouth,Shop Rite Pharmacy of West Long Branch,Hway 36 And Rte 71,West Long Branch,7764,Monmouth
Monmouth,Stop & Shop Pharmacy of Aberdeen,1129 Rte. 34,Aberdeen,7747,Monmouth
Monmouth,Stop & Shop Pharmacy of Howell,4861 Us Highway 9,Howell,7731,Monmouth
Monmouth,Stop & Shop Pharmacy of Keyport,100 State Route 36,Keyport,7735,Monmouth
Monmouth,Stop & Shop Pharmacy of Middletown,850 State Route 35,Middletown,7748,Monmouth
Monmouth,Union Hill-Supremo Pharmacy,324 Rte. 9 N,Englishtown,7726,Monmouth
Monmouth,Village Pharmacy,1278 Yardville-Allentown Rd.,Allentown,8501,Monmouth
Monmouth,Walgreens Pharmacy of Asbury Park,901 Main St,Asbury Park,7712,Monmouth
Monmouth,Walgreens Pharmacy of Hazlet,1198 State Route 36,Hazlet,7730,Monmouth
Monmouth,Walgreens Pharmacy of Howell,1020 Us Highway 9,Howell,7731,Monmouth
Monmouth,Walgreens Pharmacy of Neptune,1905 Corlies Ave,Neptune,7753,Monmouth
Monmouth,Walgreens Pharmacy of Red Bank,395 Broad St.,Red Bank,7701,Monmouth
Monmouth,Walmart Pharmacy of Freehold,326 West Main St.,Freehold,7728,Monmouth
Monmouth,Walmart Pharmacy of Neptune,3575 State Route 66,Neptune,7753,Monmouth
Monmouth,Wegmans Food Markets of Manalapan,55  Us  Highway 9  Suite 100,Manalapan,7726,Monmouth
Monmouth,Wegmans Food Markets of Ocean,1104 Highway 35,Ocean,7712,Morris
Monmouth,CVS Pharmacy of Matawan (1088),27 Morristown Road,Matawan,7747,Monmouth
Monmouth,CVS Pharmacy of Neptune (2868),4000 Asbury Ave.,Neptune,7753,Monmouth
Monmouth,CVS of Freehold,610 W. Main St.,Freehold,7728,Monmouth
Morris,ACME Markets of Boonton,550 Myrtle Ave.,Boonton,7005,Morris
Morris,ACME Markets of Denville,123 E Main St. 125,Denville,7834,Morris
Morris,Freedom Pharmacy,1248 Sussex Turnpike B9,Randolph,7869,Morris
Morris,Genoa Healthcare of Parsippany,"1259 Route 46 East, Ste. 100A",Parsippany,7054,Morris
Morris,Greenhills Pharmacy,164A Parsippany Road,Parsippany,7054,Morris
Morris,Long Valley Pharmacy,"62 E. Mill Rd., Ste. B2",Long Valley,7853,Morris
Morris,"Morris Plains Pharmacy, Llc",712 Speedwell Avenue,Morris Plains,7950,Morris
Morris,Mount Arlington Pharmacy,"181 Howard Blvd., Unit F-1",Mount Arlington,7856,Morris
Morris,Parsippany Pharmacy,1236 Rte. 46 W,Parsippany,7054,Morris
Morris,Pompton Pharmacy,558 Newark-Pompton Turnpike,Pompton Plains,7444,Morris
Morris,Rite Aid Pharmacy of Denville,"123 E Main Street,  Ste .16",Denville,7834,Morris
Morris,Rite Aid Pharmacy of Lake Hiawatha,480 N  Beverwyck Rd,Lake Hiawatha,7034,Morris
Morris,Robinson Wellness Pharmacy,27 E Main St,Mendham,7945,Morris
Morris,Sav-On Pharmacy of Randolph,690 Millbrook Ave.,Randolph,7869,Morris
Morris,Seva Pharmacy,179 Us Highway 46 Ste 13,Rockaway,7866,Morris
Morris,Shop Rite Pharmacy of Cedar Knolls,178 E. Hanover Ave.,Cedar Knolls,7927,Morris
Morris,Shop Rite Pharmacy of Stirling,1153 Valley Rd,Stirling,7980,Morris
Morris,Stop & Shop Pharmacy of Kinnelon,25 Kinnelon Rd.,Kinnelon,7405,Morris
Morris,Stop & Shop Pharmacy of Madison,133 Main Street,Madison,7940,Morris
Morris,Stop & Shop Pharmacy of Morris Plains,245 Littleton Road,Morris Plains,7950,Morris
Morris,Towne Pharmacy of Cedar Knolls,103 Ridgedale Ave.,Cedar Knolls,7927,Morris
Morris,Walgreens Pharmacy of Dover,100 E. Mcfarlan St.,Dover,7801,Morris
Morris,Walgreens Pharmacy of Kinnelon,"1483 State Route 23, Ste 12",Kinnelon,7405,Morris
Morris,Walgreens Pharmacy of Morristown,203 South Street,Morristown,7960,Morris
Morris,Walgreens Pharmacy of Rockaway,260 Us Hwy 46,Rockaway,7866,Morris
Morris,Walmart Pharmacy of Boonton,300 Wootton Street,Boonton,7005,Morris
Morris,Walmart Pharmacy of Flanders,40 International Drive South,Flanders,7836,Morris
Morris,Walmart Pharmacy of Ledgewood,"461 Route 10, Ste. A100",Ledgewood,7852,Morris
Morris,Walmart Pharmacy of Riverdale,48 Route  #23 North,Riverdale,7457,Morris
Morris,Walmart Pharmacy of Rockaway,220 Enterprise Drive,Rockaway,7866,Morris
Morris,Wegmans Food Markets of Parsippany,34 Sylvan Way,Parsippany,7054,Ocean
Morris,CVS Pharmacy of Ledgewood (1780),1103 Route 46,Ledgewood,7852,Morris
Ocean,ACME Markets of Seaside Heights,4030 Route 37 E Ste 3F,Seaside Heights,8751,Ocean
Ocean,Baywood Pharmacy,336 Drum Point Rd.,Brick,8723,Ocean
Ocean,Butler Pharmacy,2301 Bridge Ave,Point Pleasant,8742,Ocean
Ocean,Genoa Healthcare of Bayville,"160 Route 9, Room 11",Bayville,8721,Ocean
Ocean,Genoa Healthcare of Lakewood,700 Airport Rd.,Lakewood,8701,Ocean
Ocean,Hackensack Meridian Village Pharmacy,27 South Cooks Bridge Rd,Jackson,8527,Ocean
Ocean,Halcyon Pharmacy,"1659 Rte. 88 West, Unit #C",Brick,8724,Ocean
Ocean,Hc Good Neighbor Pharmacy,"1071 Rte 37., West, Unit 10",Toms River,8755,Ocean
Ocean,Hmh Pharmacy At  Southern Ocean Medical Ctr.,1140 Route 72 West,Manahawkin,8050,Ocean
Ocean,Kapler'S Pharmacy Department,Bay & Centre St.,Beach Haven,8008,Ocean
Ocean,Medicine Solutions,255 E Bay Ave,Manahawkin,8050,Ocean
Ocean,Oceancare Pharmacy,1905 Route 88,Brick,8724,Ocean
Ocean,Plumsted Pharmacy,28 Brindletown Rd,New Egypt,8533,Ocean
Ocean,Rite Aid Pharmacy of Barnegat,895 West Bay Ave,Barnegat,8005,Ocean
Ocean,Rite Aid Pharmacy of Bayville,424 Route 9,Bayville,8721,Ocean
Ocean,Rite Aid Pharmacy of Beachwood,93 Atlantic City Blvd,Beachwood,8722,Ocean
Ocean,Rite Aid Pharmacy of Brick,1041 Burnt Tavern Road,Brick,8724,Ocean
Ocean,Rite Aid Pharmacy of Forked River,101 South Main Street,Forked River,8731,Ocean
Ocean,Rite Aid Pharmacy of Jackson,1 North New Prospect Rd,Jackson,8527,Ocean
Ocean,Rite Aid Pharmacy of Lavallette,702  Grand Central Ave.,Lavallette,8735,Ocean
Ocean,Rite Aid Pharmacy of Little Egg Harbor,480 Route 9 South,Little Egg Harbor,8087,Ocean
Ocean,Rite Aid Pharmacy of Little Egg Harbor,220 Mathistown Rd,Little Egg Harbor,8087,Ocean
Ocean,Rite Aid Pharmacy of Manchester,2101 Route 70,Manchester,8759,Ocean
Ocean,Rite Aid Pharmacy of Point Pleasant,3258 Bridge Avenue,Point Pleasant,8742,Ocean
Ocean,Rite Aid Pharmacy of Toms River,2 Route 37 East,Toms River,8753,Ocean
Ocean,Rite Aid Pharmacy of Toms River,31 Mule Rd.,Toms River,8755,Ocean
Ocean,Rite Aid Pharmacy of Toms River,1726 Route #37 East,Toms River,8753,Ocean
Ocean,Rite Aid Pharmacy of Toms River,811 Fischer Blvd,Toms River,8753,Ocean
Ocean,Rite Aid Pharmacy of Toms River,220 Route 70,Toms River,8755,Ocean
Ocean,Rite Aid Pharmacy of Whiting,86-B Lacey Road,Whiting,8759,Ocean
Ocean,Sav-On Pharmacy of Little Egg Harbor Township,425 Route 9 S,Little Egg Harbor Township,8087,Ocean
Ocean,Shop Rite Pharmacy of Bayville,427-429 Route #9,Bayville,8721,Ocean
Ocean,Shop Rite Pharmacy of Bricktown,Rte 70 & Chambersbridge Rd,Bricktown,8723,Ocean
Ocean,Shop Rite Pharmacy of Jackson Township,260 North County Line Road,Jackson Township,8527,Ocean
Ocean,Shop Rite Pharmacy of Manahawkin,297 Route 72 West,Manahawkin,8050,Ocean
Ocean,Shop Rite Pharmacy of Manchester,1001 Route 70 W & Colonial Dr.,Manchester,8759,Ocean
Ocean,Shop Rite Pharmacy of Toms River,860  Fischer Blvd,Toms River,8753,Ocean
Ocean,Shop Rite Pharmacy of Toms River,2 Rte. 37 W.,Toms River,8753,Ocean
Ocean,Shop Rite Pharmacy of Waretown,501 Route 9 - Suite 100,Waretown,8758,Ocean
Ocean,Silverton Pharmacy,1824 Hooper Ave,Toms River,8753,Ocean
Ocean,Stop & Shop Pharmacy of Brick Township,55 Brick Boulevard  #1,Brick Township,8723,Ocean
Ocean,Stop & Shop Pharmacy of Jackson,2275 West County Line Road,Jackson,8527,Ocean
Ocean,Stop & Shop Pharmacy of Toms River,2360 Lakewood Rd.,Toms River,8755,Ocean
Ocean,Stop & Shop Pharmacy of Toms River,353 Route 37E,Toms River,8753,Ocean
Ocean,Stop & Shop Pharmacy of Whiting,400 Lacey Road,Whiting,8759,Ocean
Ocean,Walgreens Pharmacy of Brick,1890 Rt 88,Brick,8724,Ocean
Ocean,Walgreens Pharmacy of Point Pleasant Boro,1513 Richmond Ave.,Point Pleasant Boro,8742,Ocean
Ocean,Walgreens Pharmacy of Toms River,1311 Route 37 W,Toms River,8755,Ocean
Ocean,Walmart Pharmacy of Brick,1872 Route 88,Brick,8724,Ocean
Ocean,Walmart Pharmacy of Lanoka Harbor,580 Route 9,Lanoka Harbor,8734,Ocean
Ocean,Walmart Pharmacy of Little Egg Harbor Township,631 Rte.9 South,Little Egg Harbor Township,8087,Ocean
Ocean,Walmart Pharmacy of Toms River,950 Route #37 West,Toms River,8755,Passaic
Ocean,CVS Pharmacy of Brick (2464),"989 Burnt Tavern Road, Suite 2",Brick,8724,Ocean
Ocean,CVS of Toms River (356),51 Bananier Drive,Toms River,8755,Ocean
Passaic,ACME Markets of Oak Ridge,5774 Berkshire Valley Rd.,Oak Ridge,7438,Passaic
Passaic,Barnert Pharmacy,"680 Broadway, Ste. 108",Paterson,7514,Passaic
Passaic,Billstra Pharmacy,608 B 21St Avenue,Paterson,7513,Passaic
Passaic,Bluejay Pharmacy & Medical Supply,377 Valley Road �,Clifton,7013,Passaic
Passaic,Burgio'S Pharmacy,137 Union Blvd,Totowa,7512,Passaic
Passaic,Colonial Pharmacy,828 Clifton Ave,Clifton,7013,Passaic
Passaic,Curemed Pharmacy,353 Crooks Ave.,Clifton,7011,Passaic
Passaic,Deblieck'S Pharmacy,467 High Mountain Rd.,North Haledon,7508,Passaic
Passaic,Downtown Pharmacy,125 Main Street,Paterson,7505,Passaic
Passaic,Florida Drug & Liquor,507 Broadway,Paterson,7514,Passaic
Passaic,Grand Street Pharmacy,351 Grand St,Paterson,7505,Passaic
Passaic,Green Apple Pharmacy,1145 Main Ave,Clifton,7011,Passaic
Passaic,Health Care Pharmacy,15 Broadway,Passaic,7055,Passaic
Passaic,Hometown Pharmacy & Compounding Center,36A  Main St.,Bloomingdale,7403,Passaic
Passaic,Irving Pharmacy,382 Main Street,Paterson,7501,Passaic
Passaic,Kay Pharmacy,448 Chamberlain Avenue,Paterson,7522,Passaic
Passaic,La Nueva Mercedes Pharmacy Dept.,500 River St,Paterson,7524,Passaic
Passaic,Main Fair Pharmacy,87 Main Street,Paterson,7505,Passaic
Passaic,Mcdermott Phcy.,433 Union Ave.,Paterson,7502,Passaic
Passaic,Park Ave Pharmacy,107 Park Ave.,Paterson,7501,Passaic
Passaic,Paterson Pharmacy,430 Madison Ave.,Paterson,7524,Passaic
Passaic,Presidential Pharmacy,121 West Broadway,Paterson,7522,Passaic
Passaic,Rite Aid Pharmacy of Clifton,Richfield Shp Ctr,Clifton,7012,Passaic
Passaic,Rite Aid Pharmacy of Haledon,431 Haledon Avenue,Haledon,7508,Passaic
Passaic,Rite Aid Pharmacy of West Milford,3 Marshall Hill Road,West Milford,7480,Passaic
Passaic,Riverview Pharmacy,"2405 Hamburg Tpke., Ste. C",Wayne,7470,Passaic
Passaic,Sheefa Pharmacy,1040 Main St.,Paterson,7503,Passaic
Passaic,Shop Rite Pharmacy of Little Falls,171 Browertown Rd,Little Falls,7424,Passaic
Passaic,Stop & Shop Pharmacy of Clifton,160 Kingsland Road,Clifton,7014,Passaic
Passaic,Stop & Shop Pharmacy of Clifton,1185 Broad St.,Clifton,7013,Passaic
Passaic,Stop & Shop Pharmacy of Wayne,1210 Hamburg Tpke.,Wayne,7470,Passaic
Passaic,Valley Pharmacy,791 Hamburg Turnpike,Wayne,7470,Passaic
Passaic,Van Houten Pharmacy,669 Van Houten Ave,Clifton,7013,Passaic
Passaic,Walgreens Pharmacy of Clifton,1138 Main Avenue,Clifton,7011,Passaic
Passaic,Walgreens Pharmacy of Paterson,639 East 18Th Street,Paterson,7501,Passaic
Passaic,Walgreens Pharmacy of Paterson,350 Preakness Ave.,Paterson,7502,Passaic
Passaic,Walgreens Pharmacy of Paterson,750 Main St.,Paterson,7503,Passaic
Passaic,Walgreens Pharmacy of Wayne,1460 State Route 23,Wayne,7470,Passaic
Passaic,Wayne Pharmacy,1055 Hamburg Tpke.,Wayne,7470,Passaic
Passaic,West Milford Pharmacy,1495 Union Valley Rd.,West Milford,7480,Passaic
Passaic,Williams Pharmacy,305 Broadway,Paterson,7501,Salem
Passaic,CVS Pharmacy of Wayne (715),2440 Hamburg Turnpike,Wayne,7470,Passaic
Passaic,CVS of Clifton,515 Allwood Road,Clifton,7012,Passaic
Salem,Genoa Healthcare of Carneys Point,"500 South Pennsville-Auburn Road, Room 300",Carneys Point,8069,Salem
Salem,Rite Aid Pharmacy of Penns Grove,130 East Main Street,Penns Grove,8069,Salem
Salem,Rite Aid Pharmacy of Pilesgrove,865 Route 45,Pilesgrove,8098,Salem
Salem,Rite Aid Pharmacy of Salem,435 East Braodway,Salem,8079,Salem
Salem,Sav-On Pharmacy of Pennsville,251 North Broadway,Pennsville,8070,Salem
Salem,Sav-On Pharmacy of Pilesgrove,857 Route  45,Pilesgrove,8098,Salem
Salem,Walgreens Pharmacy of Penns Grove,2 North Virginia Ave.,Penns Grove,8069,Salem
Salem,Walmart Pharmacy of Pennsville,709 South Broadway,Pennsville,8070,Somerset
Somerset,"Bedminster Specialty Pharmacy, Inc.",1560 Route 206 N,Bedminster,7921,Somerset
Somerset,Edgewood Pharmacy,62 Mountain Blvd,Warren,7059,Somerset
Somerset,Hillsboro Pharmacy,"256 Us Hwy 206, Ste 12",Hillsborough,8844,Somerset
Somerset,Raritan Valley Pharmacy,1055 Route 202 North,Branchburg,8876,Somerset
Somerset,Rite Aid Pharmacy of Somerset,773 Hamilton Street,Somerset,8873,Somerset
Somerset,Rite Aid Pharmacy of Somerville,132 North Gaston Avenue,Somerville,8876,Somerset
Somerset,Riverwalk Pharmacy,665 Martinsville Rd.,Basking Ridge,7920,Somerset
Somerset,Shop Rite Pharmacy of Bernardsville,"Rte. 202, 93 Morristown Rd.",Bernardsville,7924,Somerset
Somerset,Shop Rite Pharmacy of Bound Brook,611 West Union Avenue,Bound Brook,8805,Somerset
Somerset,Shop Rite Pharmacy of Branchburg,3166 Route   22,Branchburg,8876,Somerset
Somerset,Shop Rite Pharmacy of Hillsborough,601 Rt 206,Hillsborough,8844,Somerset
Somerset,Shop Rite Pharmacy of Somerset,435 Elizabeth Avenue,Somerset,8873,Somerset
Somerset,Shop Rite Pharmacy of Somerville,1 S. Davenport St.,Somerville,8876,Somerset
Somerset,Stop & Shop Pharmacy of Franklin Park,3333 State Route 27,Franklin Park,8823,Somerset
Somerset,Stop & Shop Pharmacy of Somerset,940 Easton Avenue,Somerset,8873,Somerset
Somerset,Ultra Care Pharmacy of Franklin Park,"3191 Rt 27, Store #3",Franklin Park,8823,Somerset
Somerset,Walgreens Pharmacy of Franklin Park,3125 State Route 27,Franklin Park,8823,Somerset
Somerset,Walmart Pharmacy of Manville,100 North Main St,Manville,8835,Somerset
Somerset,Wegmans Food Markets of Bridgewater,724 Route 202 South,Bridgewater,8807,Sussex
Somerset,CVS Pharmacy of Hillsborough (2203),220 TRIANGLE RD,Hillsborough,8844,Somerset
Sussex,ACME Markets of Sussex,455 State Rte 23,Sussex,7461,Sussex
Sussex,ACME Markets of Vernon,530 County Rte 515 Unit 1,Vernon,7462,Sussex
Sussex,North Country Pharmacy,"190 Munsonhurst Rd., #9",Franklin,7416,Sussex
Sussex,Rite Aid Pharmacy of Hamburg,2 Vernon Avenue,Hamburg,7419,Sussex
Sussex,Rite Aid Pharmacy of Newton,237 Spring Street,Newton,7860,Sussex
Sussex,Sparta Pharmacy,"61 Sparta Ave., Ste. B",Sparta,7871,Sussex
Sussex,Stop & Shop Pharmacy of Sparta,5 Town Center Dr.,Sparta,7871,Sussex
Sussex,Walgreens Pharmacy of Franklin,245 Rte. 23,Franklin,7416,Sussex
Sussex,Walgreens Pharmacy of Newton,126 Water St.,Newton,7860,Sussex
Sussex,Walmart Pharmacy of Newton,26 Hampton House Road,Newton,7860,Union
Sussex,CVS of Sparta,11 Theatre Ctr.,Sparta,7871,Sussex
Union,ACME Markets of Clark,1060 Raritan Rd.,Clark,7066,Union
Union,ACME Markets of Kenilworth,801 Kenilworth Blvd.,Kenilworth,7033,Union
Union,Camacho Pharmacy,509 Elizabeth Avenue,Elizabeth,7206,Union
Union,Colton's Pharmacy,851 Elizabeth Ave.,Elizabeth,7201,Union
Union,Community Pharmacy,"1089 Elizabeth Ave., Store 5",Elizabeth,7201,Union
Union,Horowitz - Supremo Pharmacy & Surgical Supplies,32 Grove St.,Elizabeth,7202,Union
Union,Rapps Pharmacy,611 Park Ave.,Plainfield,7060,Union
Union,Shop Rite Pharmacy of Clark,76 Central Ave,Clark,7066,Union
Union,Shop Rite Pharmacy of Elizabeth,865 W Grand St,Elizabeth,7202,Union
Union,Shop Rite Pharmacy of Hillside,367 Route 22 West,Hillside,7205,Union
Union,Shop Rite Pharmacy of Union,2401 Us Hwy 22 W,Union,7083,Union
Union,Skaff'S Corner Pharmacy,1112 St. Georges Ave,Rahway,7065,Union
Union,Stop & Shop Pharmacy of Elizabeth,801 Newark Avenue,Elizabeth,7208,Union
Union,St. Peter Pharmacy,105 Broad St.,Elizabeth,7201,Union
Union,Tiffany Natural Phcy,1115 South Avenue W,Westfield,7090,Union
Union,Union Pharmacy,338 Chestnut St,Union,7083,Union
Union,Walgreens Pharmacy of Berkeley Heights,343 Springfield Ave.,Berkeley Heights,7922,Union
Union,Walgreens Pharmacy of Elizabeth,600 Newark Avenue,Elizabeth,7208,Union
Union,Walgreens Pharmacy of Linden,22 East St Georges Avenue,Linden,7036,Union
Union,Walgreens Pharmacy of Plainfield,1147 South Ave.,Plainfield,7062,Warren
Union,Walmart Pharmacy of Linden,1050 W. Edgar Rd.,Linden,7036,Warren
Union,CVS Pharmacy of Hillside (479),265 Long Avenue,Hillside,7205,Union
Union,DOWNTOWN PHARMACY,1120 Elizabeth Ave.,Elizabeth City,7201,Union
Union,CVS of Rahway (905),890 ST GEORGE'S AVENUE,RAHWAY,7065,Union
Warren,ACME Markets of Blairstown,152 State Rte 94,Blairstown,7825,Warren
Warren,Panther Valley Pharmacy & Gifts,1581 County Road 517,Hackettstown,7840,Warren
Warren,Phillipsburg Pharmacy,96 Baltimore St.,Phillipsburg,8865,Warren
Warren,Rite Aid Pharmacy of Belvidere,2 Upper Sarepta Road,Belvidere,7823,Warren
Warren,Rite Aid Pharmacy of Blairstown,151 Route #94,Blairstown,7825,Warren
Warren,Rite Aid Pharmacy of Hackettstown,203 Mountain Ave,Hackettstown,7840,Warren
Warren,Rite Aid Pharmacy of Phillipsburg,755 Memorial Parkway,Phillipsburg,8865,Warren
Warren,Rite Aid Pharmacy of Washington,354 Route 57  West,Washington,7882,Warren
Warren,Shop Rite Pharmacy of Phillipsburg,1207 Route #22,Phillipsburg,8865,Warren
Warren,Shop Rite Pharmacy of Washington,2 Clubhouse Dr.,Washington,7882,Warren
Warren,Stop & Shop Pharmacy of Phillipsburg,1278 Us Highway 22,Phillipsburg,8865,Warren
Warren,Walmart Pharmacy of Hackettstown,1885 State Route 57 Ste 100,Hackettstown,7840,Warren
Warren,Walmart Pharmacy of Phillipsburg,1300 Us Highway 22,Phillipsburg,8865,Warren
Warren,V Care Pharmacy Corp.,362 South Main Street,Phillipsburg,8865,Warren
